{
  "type": "FeatureCollection",
  "features": [
    {
      "type": "Feature",
      "properties": {
        "norad_id": 36744,
        "name": "COMS 1",
        "group": "weather",
        "lat": 4.33244307749011,
        "lon": 168.83218957769026,
        "alt_km": 35787.170499107626,
        "timestamp": "2025-12-08T21:31:04.318098+00:00",
        "meta_object_name": "COMS 1",
        "meta_object_id": "2010-032A",
        "meta_epoch": "2025-12-08T14:12:48.741984",
        "meta_mean_motion": 1.00271073,
        "meta_eccentricity": 0.00011152,
        "meta_inclination": 4.331,
        "meta_ra_of_asc_node": 78.0438,
        "meta_arg_of_pericenter": 198.2391,
        "meta_mean_anomaly": 142.693,
        "meta_ephemeris_type": 0,
        "meta_classification_type": "U",
        "meta_norad_cat_id": 36744,
        "meta_element_set_no": 999,
        "meta_rev_at_epoch": 4917,
        "meta_bstar": 0,
        "meta_mean_motion_dot": -3.43e-06,
        "meta_mean_motion_ddot": 0,
        "tle_line1": "1 36744U 10032A   25342.59223081 -.00000343  00000+0  00000+0 0  9995",
        "tle_line2": "2 36744   4.3310  78.0438 0001115 198.2391 142.6930  1.00271073 49175"
      },
      "geometry": {
        "type": "Point",
        "coordinates": [
          168.83218957769026,
          4.33244307749011
        ]
      }
    },
    {
      "type": "Feature",
      "properties": {
        "norad_id": 37214,
        "name": "FENGYUN 3B",
        "group": "weather",
        "lat": -80.91589400659497,
        "lon": 104.84488510250725,
        "alt_km": 852.3861757531622,
        "timestamp": "2025-12-08T21:31:04.318110+00:00",
        "meta_object_name": "FENGYUN 3B",
        "meta_object_id": "2010-059A",
        "meta_epoch": "2025-12-08T15:40:15.991968",
        "meta_mean_motion": 14.14788235,
        "meta_eccentricity": 0.00221823,
        "meta_inclination": 98.9915,
        "meta_ra_of_asc_node": 22.6017,
        "meta_arg_of_pericenter": 9.3703,
        "meta_mean_anomaly": 102.0454,
        "meta_ephemeris_type": 0,
        "meta_classification_type": "U",
        "meta_norad_cat_id": 37214,
        "meta_element_set_no": 999,
        "meta_rev_at_epoch": 78048,
        "meta_bstar": 0.00012066476,
        "meta_mean_motion_dot": 1.88e-06,
        "meta_mean_motion_ddot": 0,
        "tle_line1": "1 37214U 10059A   25342.65296287  .00000188  00000+0  12066-3 0  9997",
        "tle_line2": "2 37214  98.9915  22.6017 0022182   9.3703 102.0454 14.14788235780481"
      },
      "geometry": {
        "type": "Point",
        "coordinates": [
          104.84488510250725,
          -80.91589400659497
        ]
      }
    },
    {
      "type": "Feature",
      "properties": {
        "norad_id": 37849,
        "name": "SUOMI NPP",
        "group": "weather",
        "lat": 46.28526866558452,
        "lon": -89.02585348120881,
        "alt_km": 822.6367861067365,
        "timestamp": "2025-12-08T21:31:04.318121+00:00",
        "meta_object_name": "SUOMI NPP",
        "meta_object_id": "2011-061A",
        "meta_epoch": "2025-12-08T14:31:49.794816",
        "meta_mean_motion": 14.19512483,
        "meta_eccentricity": 0.00021044,
        "meta_inclination": 98.7767,
        "meta_ra_of_asc_node": 279.9844,
        "meta_arg_of_pericenter": 127.4661,
        "meta_mean_anomaly": 232.6706,
        "meta_ephemeris_type": 0,
        "meta_classification_type": "U",
        "meta_norad_cat_id": 37849,
        "meta_element_set_no": 999,
        "meta_rev_at_epoch": 73140,
        "meta_bstar": 0.00012233612,
        "meta_mean_motion_dot": 2.14e-06,
        "meta_mean_motion_ddot": 0,
        "tle_line1": "1 37849U 11061A   25342.60543744  .00000214  00000+0  12234-3 0  9990",
        "tle_line2": "2 37849  98.7767 279.9844 0002104 127.4661 232.6706 14.19512483731403"
      },
      "geometry": {
        "type": "Point",
        "coordinates": [
          -89.02585348120881,
          46.28526866558452
        ]
      }
    },
    {
      "type": "Feature",
      "properties": {
        "norad_id": 38552,
        "name": "METEOSAT-10 (MSG-3)",
        "group": "weather",
        "lat": -1.4895423276164232,
        "lon": 40.863678551118525,
        "alt_km": 35786.684299526314,
        "timestamp": "2025-12-08T21:31:04.318136+00:00",
        "meta_object_name": "METEOSAT-10 (MSG-3)",
        "meta_object_id": "2012-035B",
        "meta_epoch": "2025-12-08T01:37:13.932768",
        "meta_mean_motion": 1.00273522,
        "meta_eccentricity": 8.845e-05,
        "meta_inclination": 4.2178,
        "meta_ra_of_asc_node": 61.7316,
        "meta_arg_of_pericenter": 234.9391,
        "meta_mean_anomaly": 164.8501,
        "meta_ephemeris_type": 0,
        "meta_classification_type": "U",
        "meta_norad_cat_id": 38552,
        "meta_element_set_no": 999,
        "meta_rev_at_epoch": 4894,
        "meta_bstar": 0,
        "meta_mean_motion_dot": -4e-08,
        "meta_mean_motion_ddot": 0,
        "tle_line1": "1 38552U 12035B   25342.06752237 -.00000004  00000+0  00000+0 0  9995",
        "tle_line2": "2 38552   4.2178  61.7316 0000884 234.9391 164.8501  1.00273522 48944"
      },
      "geometry": {
        "type": "Point",
        "coordinates": [
          40.863678551118525,
          -1.4895423276164232
        ]
      }
    },
    {
      "type": "Feature",
      "properties": {
        "norad_id": 38771,
        "name": "METOP-B",
        "group": "weather",
        "lat": -52.42762319887816,
        "lon": -158.53322827886242,
        "alt_km": 827.2170294739744,
        "timestamp": "2025-12-08T21:31:04.318158+00:00",
        "meta_object_name": "METOP-B",
        "meta_object_id": "2012-049A",
        "meta_epoch": "2025-12-08T15:21:21.165120",
        "meta_mean_motion": 14.21406297,
        "meta_eccentricity": 0.00027404,
        "meta_inclination": 98.6805,
        "meta_ra_of_asc_node": 32.668,
        "meta_arg_of_pericenter": 153.1003,
        "meta_mean_anomaly": 207.0317,
        "meta_ephemeris_type": 0,
        "meta_classification_type": "U",
        "meta_norad_cat_id": 38771,
        "meta_element_set_no": 999,
        "meta_rev_at_epoch": 68619,
        "meta_bstar": 0.00015046995,
        "meta_mean_motion_dot": 2.85e-06,
        "meta_mean_motion_ddot": 0,
        "tle_line1": "1 38771U 12049A   25342.63982830  .00000285  00000+0  15047-3 0  9991",
        "tle_line2": "2 38771  98.6805  32.6680 0002740 153.1003 207.0317 14.21406297686191"
      },
      "geometry": {
        "type": "Point",
        "coordinates": [
          -158.53322827886242,
          -52.42762319887816
        ]
      }
    },
    {
      "type": "Feature",
      "properties": {
        "norad_id": 39216,
        "name": "INSAT-3D",
        "group": "weather",
        "lat": 1.4277351647199663,
        "lon": 170.18705438224262,
        "alt_km": 35784.40857498306,
        "timestamp": "2025-12-08T21:31:04.318182+00:00",
        "meta_object_name": "INSAT-3D",
        "meta_object_id": "2013-038B",
        "meta_epoch": "2025-12-08T14:21:38.470752",
        "meta_mean_motion": 1.00271541,
        "meta_eccentricity": 0.00016898,
        "meta_inclination": 1.4342,
        "meta_ra_of_asc_node": 85.0326,
        "meta_arg_of_pericenter": 162.1145,
        "meta_mean_anomaly": 175.411,
        "meta_ephemeris_type": 0,
        "meta_classification_type": "U",
        "meta_norad_cat_id": 39216,
        "meta_element_set_no": 999,
        "meta_rev_at_epoch": 4516,
        "meta_bstar": 0,
        "meta_mean_motion_dot": -3.37e-06,
        "meta_mean_motion_ddot": 0,
        "tle_line1": "1 39216U 13038B   25342.59836193 -.00000337  00000+0  00000+0 0  9998",
        "tle_line2": "2 39216   1.4342  85.0326 0001689 162.1145 175.4110  1.00271541 45161"
      },
      "geometry": {
        "type": "Point",
        "coordinates": [
          170.18705438224262,
          1.4277351647199663
        ]
      }
    },
    {
      "type": "Feature",
      "properties": {
        "norad_id": 39260,
        "name": "FENGYUN 3C",
        "group": "weather",
        "lat": -19.060829240374314,
        "lon": 137.81041735104003,
        "alt_km": 834.942626463313,
        "timestamp": "2025-12-08T21:31:04.318196+00:00",
        "meta_object_name": "FENGYUN 3C",
        "meta_object_id": "2013-052A",
        "meta_epoch": "2025-12-08T15:29:26.926656",
        "meta_mean_motion": 14.15694466,
        "meta_eccentricity": 0.00140576,
        "meta_inclination": 98.476,
        "meta_ra_of_asc_node": 320.5249,
        "meta_arg_of_pericenter": 208.1965,
        "meta_mean_anomaly": 151.8451,
        "meta_ephemeris_type": 0,
        "meta_classification_type": "U",
        "meta_norad_cat_id": 39260,
        "meta_element_set_no": 999,
        "meta_rev_at_epoch": 63160,
        "meta_bstar": 0.00013520676,
        "meta_mean_motion_dot": 2.24e-06,
        "meta_mean_motion_ddot": 0,
        "tle_line1": "1 39260U 13052A   25342.64545054  .00000224  00000+0  13521-3 0  9992",
        "tle_line2": "2 39260  98.4760 320.5249 0014057 208.1965 151.8451 14.15694466631606"
      },
      "geometry": {
        "type": "Point",
        "coordinates": [
          137.81041735104003,
          -19.060829240374314
        ]
      }
    }
  ]
}